{"type": "FeatureCollection", "features": [ {"type": "Feature", "properties": {"norad_id": 37550, "name": "IRIDIUM 33 DEB", "group": "iridium-33-debris", "lat": -13.064345296111156, "lon": -157.57061977750277, "alt_km": 674.7632767856012, "timestamp": "2025-12-17T21:39:46.075547+00:00", "meta": {"OBJECT_NAME": "IRIDIUM 33 DEB", "OBJECT_ID": "1997-051XK", "EPOCH": "2025-12-16T08:46:40.262592", "MEAN_MOTION": 14.67259754, "ECCENTRICITY": 0.0005579, "INCLINATION": 86.3783, "RA_OF_ASC_NODE": 22.2681, "ARG_OF_PERICENTER": 103.1019, "MEAN_ANOMALY": 257.0818, "EPHEMERIS_TYPE": 0, "CLASSIFICATION_TYPE": "U", "NORAD_CAT_ID": 37550, "ELEMENT_SET_NO": 999, "REV_AT_EPOCH": 86386, "BSTAR": 0.00084076341, "MEAN_MOTION_DOT": 4.76e-05, "MEAN_MOTION_DDOT": 0}, "tle": {"line1": "1 37550U 97051XK  25350.36574378  .00004760  00000+0  84076-3 0  9994", "line2": "2 37550  86.3783  22.2681 0005579 103.1019 257.0818 14.67259754863861"}}, "geometry": {"type": "Point", "coordinates": [-157.57061977750277, -13.064345296111156]}}, {"type": "Feature", "properties": {"norad_id": 37562, "name": "IRIDIUM 33 DEB", "group": "iridium-33-debris", "lat": -22.465486907636937, "lon": -137.1471841544602, "alt_km": 716.6313235536127, "timestamp": "2025-12-17T21:39:46.075557+00:00", "meta": {"OBJECT_NAME": "IRIDIUM 33 DEB", "OBJECT_ID": "1997-051XX", "EPOCH": "2025-12-16T22:12:28.072224", "MEAN_MOTION": 14.56512881, "ECCENTRICITY": 0.00265537, "INCLINATION": 86.3751, "RA_OF_ASC_NODE": 41.7767, "ARG_OF_PERICENTER": 94.665, "MEAN_ANOMALY": 26.3647, "EPHEMERIS_TYPE": 0, "CLASSIFICATION_TYPE": "U", "NORAD_CAT_ID": 37562, "ELEMENT_SET_NO": 999, "REV_AT_EPOCH": 86389, "BSTAR": 0.00076013529, "MEAN_MOTION_DOT": 3.418e-05, "MEAN_MOTION_DDOT": 0}, "tle": {"line1": "1 37562U 97051XX  25350.92532491  .00003418  00000+0  76014-3 0  9991", "line2": "2 37562  86.3751  41.7767 0026553  94.6650  26.3647 14.56512881863891"}}, "geometry": {"type": "Point", "coordinates": [-137.1471841544602, -22.465486907636937]}}, {"type": "Feature", "properties": {"norad_id": 37565, "name": "IRIDIUM 33 DEB", "group": "iridium-33-debris", "lat": -70.25769785779295, "lon": -162.42319426677878, "alt_km": 738.7337673922111, "timestamp": "2025-12-17T21:39:46.075566+00:00", "meta": {"OBJECT_NAME": "IRIDIUM 33 DEB", "OBJECT_ID": "1997-051YA", "EPOCH": "2025-12-16T08:06:50.433408", "MEAN_MOTION": 14.51532577, "ECCENTRICITY": 0.00151174, "INCLINATION": 86.3492, "RA_OF_ASC_NODE": 8.0105, "ARG_OF_PERICENTER": 73.8183, "MEAN_ANOMALY": 286.4685, "EPHEMERIS_TYPE": 0, "CLASSIFICATION_TYPE": "U", "NORAD_CAT_ID": 37565, "ELEMENT_SET_NO": 999, "REV_AT_EPOCH": 65889, "BSTAR": 0.00040818811, "MEAN_MOTION_DOT": 1.655e-05, "MEAN_MOTION_DDOT": 0}, "tle": {"line1": "1 37565U 97051YA  25350.33808372  .00001655  00000+0  40819-3 0  9998", "line2": "2 37565  86.3492   8.0105 0015117  73.8183 286.4685 14.51532577658894"}}, "geometry": {"type": "Point", "coordinates": [-162.42319426677878, -70.25769785779295]}}, {"type": "Feature", "properties": {"norad_id": 38017, "name": "IRIDIUM 33 DEB", "group": "iridium-33-debris", "lat": -66.48040870739693, "lon": 155.52924873275398, "alt_km": 793.5856629088657, "timestamp": "2025-12-17T21:39:46.075575+00:00", "meta": {"OBJECT_NAME": "IRIDIUM 33 DEB", "OBJECT_ID": "1997-051YD", "EPOCH": "2025-12-15T05:20:28.842720", "MEAN_MOTION": 14.49104048, "ECCENTRICITY": 0.00921394, "INCLINATION": 86.3417, "RA_OF_ASC_NODE": 165.1477, "ARG_OF_PERICENTER": 94.6566, "MEAN_ANOMALY": 266.5169, "EPHEMERIS_TYPE": 0, "CLASSIFICATION_TYPE": "U", "NORAD_CAT_ID": 38017, "ELEMENT_SET_NO": 999, "REV_AT_EPOCH": 61438, "BSTAR": 0.0029139765, "MEAN_MOTION_DOT": 0.00011718, "MEAN_MOTION_DDOT": 0}, "tle": {"line1": "1 38017U 97051YD  25349.22255605  .00011718  00000+0  29140-2 0  9996", "line2": "2 38017  86.3417 165.1477 0092139  94.6566 266.5169 14.49104048614383"}}, "geometry": {"type": "Point", "coordinates": [155.52924873275398, -66.48040870739693]}}, {"type": "Feature", "properties": {"norad_id": 38022, "name": "IRIDIUM 33 DEB", "group": "iridium-33-debris", "lat": -69.96845875123601, "lon": 3.871272159407888, "alt_km": 769.571810955179, "timestamp": "2025-12-17T21:39:46.075584+00:00", "meta": {"OBJECT_NAME": "IRIDIUM 33 DEB", "OBJECT_ID": "1997-051YJ", "EPOCH": "2025-12-16T19:19:39.728352", "MEAN_MOTION": 14.41275031, "ECCENTRICITY": 0.00461893, "INCLINATION": 86.2686, "RA_OF_ASC_NODE": 14.6628, "ARG_OF_PERICENTER": 37.5381, "MEAN_ANOMALY": 322.9028, "EPHEMERIS_TYPE": 0, "CLASSIFICATION_TYPE": "U", "NORAD_CAT_ID": 38022, "ELEMENT_SET_NO": 999, "REV_AT_EPOCH": 69252, "BSTAR": 0.00076326479, "MEAN_MOTION_DOT": 2.517e-05, "MEAN_MOTION_DDOT": 0}, "tle": {"line1": "1 38022U 97051YJ  25350.80532093  .00002517  00000+0  76326-3 0  9993", "line2": "2 38022  86.2686  14.6628 0046189  37.5381 322.9028 14.41275031692523"}}, "geometry": {"type": "Point", "coordinates": [3.871272159407888, -69.96845875123601]}}, {"type": "Feature", "properties": {"norad_id": 38028, "name": "IRIDIUM 33 DEB", "group": "iridium-33-debris", "lat": 14.470376591143976, "lon": 177.07669301758773, "alt_km": 728.6090568429154, "timestamp": "2025-12-17T21:39:46.075593+00:00", "meta": {"OBJECT_NAME": "IRIDIUM 33 DEB", "OBJECT_ID": "1997-051YQ", "EPOCH": "2025-12-16T18:20:01.722912", "MEAN_MOTION": 14.46184882, "ECCENTRICITY": 0.00302609, "INCLINATION": 86.3259, "RA_OF_ASC_NODE": 358.5216, "ARG_OF_PERICENTER": 108.2751, "MEAN_ANOMALY": 252.1749, "EPHEMERIS_TYPE": 0, "CLASSIFICATION_TYPE": "U", "NORAD_CAT_ID": 38028, "ELEMENT_SET_NO": 999, "REV_AT_EPOCH": 65553, "BSTAR": 0.00020847815, "MEAN_MOTION_DOT": 7.7e-06, "MEAN_MOTION_DDOT": 0}, "tle": {"line1": "1 38028U 97051YQ  25350.76390883  .00000770  00000+0  20848-3 0  9990", "line2": "2 38028  86.3259 358.5216 0030260 108.2751 252.1749 14.46184882655531"}}, "geometry": {"type": "Point", "coordinates": [177.07669301758773, 14.470376591143976]}}, {"type": "Feature", "properties": {"norad_id": 38228, "name": "IRIDIUM 33 DEB", "group": "iridium-33-debris", "lat": 72.11588622915637, "lon": -145.3098864190362, "alt_km": 774.3508809263049, "timestamp": "2025-12-17T21:39:46.075602+00:00", "meta": {"OBJECT_NAME": "IRIDIUM 33 DEB", "OBJECT_ID": "1997-051ZC", "EPOCH": "2025-12-15T22:37:05.354976", "MEAN_MOTION": 14.27271769, "ECCENTRICITY": 0.00646384, "INCLINATION": 86.2946, "RA_OF_ASC_NODE": 47.1084, "ARG_OF_PERICENTER": 179.0762, "MEAN_ANOMALY": 303.5549, "EPHEMERIS_TYPE": 0, "CLASSIFICATION_TYPE": "U", "NORAD_CAT_ID": 38228, "ELEMENT_SET_NO": 999, "REV_AT_EPOCH": 84827, "BSTAR": 0.00027707855, "MEAN_MOTION_DOT": 7.12e-06, "MEAN_MOTION_DDOT": 0}, "tle": {"line1": "1 38228U 97051ZC  25349.94242309  .00000712  00000+0  27708-3 0  9997", "line2": "2 38228  86.2946  47.1084 0064638 179.0762 303.5549 14.27271769848277"}}, "geometry": {"type": "Point", "coordinates": [-145.3098864190362, 72.11588622915637]}}, {"type": "Feature", "properties": {"norad_id": 38241, "name": "IRIDIUM 33 DEB", "group": "iridium-33-debris", "lat": -2.592783002290425, "lon": 168.4894249235612, "alt_km": 715.3669641397437, "timestamp": "2025-12-17T21:39:46.075611+00:00", "meta": {"OBJECT_NAME": "IRIDIUM 33 DEB", "OBJECT_ID": "1997-051ZR", "EPOCH": "2025-12-13T06:13:58.226016", "MEAN_MOTION": 14.54873749, "ECCENTRICITY": 0.00056326, "INCLINATION": 86.3232, "RA_OF_ASC_NODE": 350.3699, "ARG_OF_PERICENTER": 72.2147, "MEAN_ANOMALY": 287.9674, "EPHEMERIS_TYPE": 0, "CLASSIFICATION_TYPE": "U", "NORAD_CAT_ID": 38241, "ELEMENT_SET_NO": 999, "REV_AT_EPOCH": 60208, "BSTAR": 0.0012492013, "MEAN_MOTION_DOT": 5.385e-05, "MEAN_MOTION_DDOT": 0}, "tle": {"line1": "1 38241U 97051ZR  25347.25970169  .00005385  00000+0  12492-2 0  9990", "line2": "2 38241  86.3232 350.3699 0005632  72.2147 287.9674 14.54873749602089"}}, "geometry": {"type": "Point", "coordinates": [168.4894249235612, -2.592783002290425]}}, {"type": "Feature", "properties": {"norad_id": 38474, "name": "IRIDIUM 33 DEB", "group": "iridium-33-debris", "lat": -57.935234713333884, "lon": -166.32691043560123, "alt_km": 750.0349292283126, "timestamp": "2025-12-17T21:39:46.075621+00:00", "meta": {"OBJECT_NAME": "IRIDIUM 33 DEB", "OBJECT_ID": "1997-051AAB", "EPOCH": "2025-12-13T08:58:04.646496", "MEAN_MOTION": 14.5069505, "ECCENTRICITY": 0.00282612, "INCLINATION": 86.3454, "RA_OF_ASC_NODE": 9.789, "ARG_OF_PERICENTER": 86.1077, "MEAN_ANOMALY": 274.3358, "EPHEMERIS_TYPE": 0, "CLASSIFICATION_TYPE": "U", "NORAD_CAT_ID": 38474, "ELEMENT_SET_NO": 999, "REV_AT_EPOCH": 65327, "BSTAR": 0.00084561127, "MEAN_MOTION_DOT": 3.359e-05, "MEAN_MOTION_DDOT": 0}, "tle": {"line1": "1 38474U 97051AAB 25347.37366489  .00003359  00000+0  84561-3 0  9991", "line2": "2 38474  86.3454   9.7890 0028261  86.1077 274.3358 14.50695050653279"}}, "geometry": {"type": "Point", "coordinates": [-166.32691043560123, -57.935234713333884]}}, {"type": "Feature", "properties": {"norad_id": 39777, "name": "IRIDIUM 33 DEB", "group": "iridium-33-debris", "lat": 31.28088185872628, "lon": 174.99776378436655, "alt_km": 734.120472316331, "timestamp": "2025-12-17T21:39:46.075630+00:00", "meta": {"OBJECT_NAME": "IRIDIUM 33 DEB", "OBJECT_ID": "1997-051AAJ", "EPOCH": "2025-12-17T11:37:29.440128", "MEAN_MOTION": 14.56536598, "ECCENTRICITY": 0.00601884, "INCLINATION": 85.9622, "RA_OF_ASC_NODE": 172.7412, "ARG_OF_PERICENTER": 170.5587, "MEAN_ANOMALY": 189.6768, "EPHEMERIS_TYPE": 0, "CLASSIFICATION_TYPE": "U", "NORAD_CAT_ID": 39777, "ELEMENT_SET_NO": 999, "REV_AT_EPOCH": 60254, "BSTAR": 0.0020288102, "MEAN_MOTION_DOT": 9.279e-05, "MEAN_MOTION_DDOT": 0}, "tle": {"line1": "1 39777U 97051AAJ 25351.48436852  .00009279  00000+0  20288-2 0  9999", "line2": "2 39777  85.9622 172.7412 0060188 170.5587 189.6768 14.56536598602541"}}, "geometry": {"type": "Point", "coordinates": [174.99776378436655, 31.28088185872628]}}]}